{"1":{"id":1,"phone_code":"021","name":"\u0627\u0633\u062a\u0627\u0646 \u062a\u0647\u0631\u0627\u0646"},"2":{"id":2,"phone_code":"031","name":"\u0627\u0633\u062a\u0627\u0646 \u0627\u0635\u0641\u0647\u0627\u0646"},"3":{"id":3,"phone_code":"051","name":"\u0627\u0633\u062a\u0627\u0646 \u062e\u0631\u0627\u0633\u0627\u0646 \u0631\u0636\u0648\u06cc"},"4":{"id":4,"phone_code":"071","name":"\u0627\u0633\u062a\u0627\u0646 \u0641\u0627\u0631\u0633"},"5":{"id":5,"phone_code":"041","name":"\u0627\u0633\u062a\u0627\u0646 \u0622\u0630\u0631\u0628\u0627\u06cc\u062c\u0627\u0646 \u0634\u0631\u0642\u06cc"},"6":{"id":6,"phone_code":"061","name":"\u0627\u0633\u062a\u0627\u0646 \u062e\u0648\u0632\u0633\u062a\u0627\u0646"},"7":{"id":7,"phone_code":"013","name":"\u0627\u0633\u062a\u0627\u0646 \u06af\u06cc\u0644\u0627\u0646"},"8":{"id":8,"phone_code":"034","name":"\u0627\u0633\u062a\u0627\u0646 \u06a9\u0631\u0645\u0627\u0646"},"9":{"id":9,"phone_code":"081","name":"\u0627\u0633\u062a\u0627\u0646 \u0647\u0645\u062f\u0627\u0646"},"10":{"id":10,"phone_code":"083","name":"\u0627\u0633\u062a\u0627\u0646 \u06a9\u0631\u0645\u0627\u0646\u0634\u0627\u0647"},"11":{"id":11,"phone_code":"077","name":"\u0627\u0633\u062a\u0627\u0646 \u0628\u0648\u0634\u0647\u0631"},"12":{"id":12,"phone_code":"011","name":"\u0627\u0633\u062a\u0627\u0646 \u0645\u0627\u0632\u0646\u062f\u0631\u0627\u0646"}}